ORBCOMM FM115 [+]       
1 41186U 15081H   24108.44726335  .00002794  00000+0  60459-3 0  9992
2 41186  46.9982 261.4169 0001426 261.6939  98.3786 14.60563591445495
ORBCOMM FM108 [+]       
1 41187U 15081J   24107.94896974  .00002383  00000+0  56818-3 0  9992
2 41187  47.0050 317.3420 0002492 162.8620 197.2349 14.56467022444623
ORBCOMM FM117 [+]       
1 41188U 15081K   24107.98335634  .00002402  00000+0  57237-3 0  9996
2 41188  47.0011 316.0814 0003048 172.6823 187.4107 14.56472466444672
ORBCOMM FM116 [+]       
1 41189U 15081L   24108.17841539  .00002732  00000+0  64599-3 0  9990
2 41189  47.0031  44.9777 0002636 272.1406  87.9177 14.56457623443516
